<?xml version='1.0' encoding='UTF-8' ?><gpx version="1.1" creator="HikingTrailHK" xsi:schemaLocation="http://www.topografix.com/GPX/1/1 http://www.topografix.com/GPX/1/1/gpx.xsd" xmlns="http://www.topografix.com/GPX/1/1" xmlns:xsi="http://www.w3.org/2001/XMLSchema-instance"><metadata><name>我的路径 @ 2022-08-13 14:30:58</name><desc></desc></metadata><trk><trkseg><trkpt lat="22.40691278125" lon="114.10541079638672" /><trkpt lat="22.40693178125" lon="114.10548179638671" /><trkpt lat="22.40687078125" lon="114.10551679638672" /><trkpt lat="22.40683478125" lon="114.10552779638672" /><trkpt lat="22.40679278125" lon="114.10552479638672" /><trkpt lat="22.40675878125" lon="114.10551579638671" /><trkpt lat="22.40672678125" lon="114.10549879638671" /><trkpt lat="22.40667678125" lon="114.10548179638671" /><trkpt lat="22.40663478125" lon="114.10547979638672" /><trkpt lat="22.40659678125" lon="114.10548679638671" /><trkpt lat="22.40655578125" lon="114.10551379638672" /><trkpt lat="22.40651678125" lon="114.10552379638672" /><trkpt lat="22.40645278125" lon="114.10552079638671" /><trkpt lat="22.40639378125" lon="114.10546779638672" /><trkpt lat="22.40634978125" lon="114.10548079638671" /><trkpt lat="22.40633378125" lon="114.10564379638672" /><trkpt lat="22.40632078125" lon="114.10569079638672" /><trkpt lat="22.40628978125" lon="114.10573479638671" /><trkpt lat="22.40589578125" lon="114.10595079638672" /><trkpt lat="22.40587178125" lon="114.10596379638672" /><trkpt lat="22.40585578125" lon="114.10598779638671" /><trkpt lat="22.40583878125" lon="114.10605279638672" /><trkpt lat="22.40583378125" lon="114.10611279638672" /><trkpt lat="22.40586078125" lon="114.10630779638672" /><trkpt lat="22.40587578125" lon="114.10636679638672" /><trkpt lat="22.40591378125" lon="114.10636579638673" /><trkpt lat="22.40613478125" lon="114.10654179638672" /><trkpt lat="22.40617878125" lon="114.10652679638672" /><trkpt lat="22.40618778125" lon="114.10652279638671" /><trkpt lat="22.40619678125" lon="114.10651779638673" /><trkpt lat="22.40619978125" lon="114.10651479638672" /><trkpt lat="22.40620478125" lon="114.10651079638671" /><trkpt lat="22.40620778125" lon="114.10650479638672" /><trkpt lat="22.40621178125" lon="114.10649779638672" /><trkpt lat="22.40621478125" lon="114.10649079638672" /><trkpt lat="22.40622178125" lon="114.10647179638671" /><trkpt lat="22.40622478125" lon="114.10646379638672" /><trkpt lat="22.40622978125" lon="114.10645579638671" /><trkpt lat="22.40623478125" lon="114.10644979638671" /><trkpt lat="22.40623778125" lon="114.10644779638672" /><trkpt lat="22.40624078125" lon="114.10644479638673" /><trkpt lat="22.40624378125" lon="114.10644379638671" /><trkpt lat="22.40625178125" lon="114.10644279638672" /><trkpt lat="22.40625778125" lon="114.10644279638672" /><trkpt lat="22.40626178125" lon="114.10644279638672" /><trkpt lat="22.40626678125" lon="114.10644279638672" /><trkpt lat="22.40627278125" lon="114.10644479638673" /><trkpt lat="22.40627978125" lon="114.10644779638672" /><trkpt lat="22.40628978125" lon="114.10645479638671" /><trkpt lat="22.40629678125" lon="114.10646079638671" /><trkpt lat="22.40630378125" lon="114.10646779638672" /><trkpt lat="22.40630878125" lon="114.10647379638672" /><trkpt lat="22.40631378125" lon="114.10648079638672" /><trkpt lat="22.40631778125" lon="114.10648779638672" /><trkpt lat="22.40632278125" lon="114.10649879638672" /><trkpt lat="22.40634878125" lon="114.10654479638671" /><trkpt lat="22.40637478125" lon="114.10655779638672" /><trkpt lat="22.40639878125" lon="114.10656179638671" /><trkpt lat="22.40640878125" lon="114.10656179638671" /><trkpt lat="22.40641678125" lon="114.10656079638672" /><trkpt lat="22.40642378125" lon="114.10655879638672" /><trkpt lat="22.40643078125" lon="114.10655579638671" /><trkpt lat="22.40643778125" lon="114.10655179638673" /><trkpt lat="22.40644378125" lon="114.10654679638672" /><trkpt lat="22.40644978125" lon="114.10654079638672" /><trkpt lat="22.40645778125" lon="114.10653079638672" /><trkpt lat="22.40649678125" lon="114.10647279638673" /><trkpt lat="22.40650578125" lon="114.10645979638672" /><trkpt lat="22.40651378125" lon="114.10645179638672" /><trkpt lat="22.40652078125" lon="114.10644479638673" /><trkpt lat="22.40652878125" lon="114.10643979638672" /><trkpt lat="22.40655878125" lon="114.10642379638672" /><trkpt lat="22.40656678125" lon="114.10642179638671" /><trkpt lat="22.40657478125" lon="114.10641979638672" /><trkpt lat="22.40658578125" lon="114.10641879638672" /><trkpt lat="22.40677278125" lon="114.10643079638672" /><trkpt lat="22.40678178125" lon="114.10643279638671" /><trkpt lat="22.40678878125" lon="114.10643579638672" /><trkpt lat="22.40679378125" lon="114.10643879638671" /><trkpt lat="22.40679878125" lon="114.10644379638671" /><trkpt lat="22.40682178125" lon="114.10646979638672" /><trkpt lat="22.40682778125" lon="114.10647779638671" /><trkpt lat="22.40687778125" lon="114.10655079638671" /><trkpt lat="22.40688278125" lon="114.10655979638672" /><trkpt lat="22.40695078125" lon="114.10667579638672" /><trkpt lat="22.40695778125" lon="114.10668879638672" /><trkpt lat="22.40700078125" lon="114.10677779638672" /><trkpt lat="22.40700478125" lon="114.10678679638671" /><trkpt lat="22.40700678125" lon="114.10679679638672" /><trkpt lat="22.40700878125" lon="114.10680879638672" /><trkpt lat="22.40701178125" lon="114.10687879638672" /><trkpt lat="22.40701378125" lon="114.10689079638672" /><trkpt lat="22.40701578125" lon="114.10690079638673" /><trkpt lat="22.40701778125" lon="114.10690779638672" /><trkpt lat="22.40702278125" lon="114.10691579638672" /><trkpt lat="22.40705478125" lon="114.10696079638672" /><trkpt lat="22.40705978125" lon="114.10696879638672" /><trkpt lat="22.40706278125" lon="114.10697679638672" /><trkpt lat="22.40706478125" lon="114.10698379638671" /><trkpt lat="22.40706578125" lon="114.10699079638673" /><trkpt lat="22.40706578125" lon="114.10700079638671" /><trkpt lat="22.40703678125" lon="114.10720079638672" /><trkpt lat="22.40703578125" lon="114.10722479638672" /><trkpt lat="22.40703878125" lon="114.10731979638672" /><trkpt lat="22.40703878125" lon="114.10732879638672" /><trkpt lat="22.40703678125" lon="114.10735379638672" /><trkpt lat="22.40703078125" lon="114.10739679638672" /><trkpt lat="22.40703078125" lon="114.10740379638672" /><trkpt lat="22.40703178125" lon="114.10740879638672" /><trkpt lat="22.40703378125" lon="114.10741379638672" /><trkpt lat="22.40703778125" lon="114.10741779638671" /><trkpt lat="22.40704378125" lon="114.10742079638672" /><trkpt lat="22.40704978125" lon="114.10742279638671" /><trkpt lat="22.40706578125" lon="114.10742679638672" /><trkpt lat="22.40707178125" lon="114.10742979638673" /><trkpt lat="22.40707578125" lon="114.10743279638672" /><trkpt lat="22.40707878125" lon="114.10743579638672" /><trkpt lat="22.40708278125" lon="114.10744179638672" /><trkpt lat="22.40708678125" lon="114.10745079638671" /><trkpt lat="22.40711578125" lon="114.10751379638671" /><trkpt lat="22.40712278125" lon="114.10752479638671" /><trkpt lat="22.40713078125" lon="114.10753579638671" /><trkpt lat="22.40713778125" lon="114.10754279638672" /><trkpt lat="22.40714578125" lon="114.10754679638671" /><trkpt lat="22.40717578125" lon="114.10755779638671" /><trkpt lat="22.40718378125" lon="114.10756179638672" /><trkpt lat="22.40719278125" lon="114.10756679638672" /><trkpt lat="22.40720078125" lon="114.10757379638672" /><trkpt lat="22.40722878125" lon="114.10760679638672" /><trkpt lat="22.40723578125" lon="114.10761479638671" /><trkpt lat="22.40724378125" lon="114.10762079638671" /><trkpt lat="22.40725178125" lon="114.10762579638671" /><trkpt lat="22.40726078125" lon="114.10762879638672" /><trkpt lat="22.40726878125" lon="114.10762979638672" /><trkpt lat="22.40727578125" lon="114.10762979638672" /><trkpt lat="22.40728178125" lon="114.10762779638672" /><trkpt lat="22.40728678125" lon="114.10762579638671" /><trkpt lat="22.40729278125" lon="114.10762179638672" /><trkpt lat="22.40729878125" lon="114.10761679638672" /><trkpt lat="22.40732878125" lon="114.10758679638671" /><trkpt lat="22.40733378125" lon="114.10758279638672" /><trkpt lat="22.40733978125" lon="114.10758179638673" /><trkpt lat="22.40734278125" lon="114.10758079638671" /><trkpt lat="22.40734578125" lon="114.10758179638673" /><trkpt lat="22.40734878125" lon="114.10758279638672" /><trkpt lat="22.40735378125" lon="114.10758779638672" /><trkpt lat="22.40735678125" lon="114.10759179638671" /><trkpt lat="22.40735978125" lon="114.10759779638671" /><trkpt lat="22.40736778125" lon="114.10761479638671" /><trkpt lat="22.40737078125" lon="114.10761979638671" /><trkpt lat="22.40737378125" lon="114.10762279638672" /><trkpt lat="22.40737778125" lon="114.10762479638672" /><trkpt lat="22.40738078125" lon="114.10762579638671" /><trkpt lat="22.40738478125" lon="114.10762679638673" /><trkpt lat="22.40738878125" lon="114.10762679638673" /><trkpt lat="22.40740178125" lon="114.10762579638671" /><trkpt lat="22.40740678125" lon="114.10762579638671" /><trkpt lat="22.40741278125" lon="114.10762579638671" /><trkpt lat="22.40741678125" lon="114.10762679638673" /><trkpt lat="22.40742178125" lon="114.10762879638672" /><trkpt lat="22.40742478125" lon="114.10762979638672" /><trkpt lat="22.40742878125" lon="114.10763279638672" /><trkpt lat="22.40743278125" lon="114.10763479638672" /><trkpt lat="22.40743578125" lon="114.10763779638671" /><trkpt lat="22.40744378125" lon="114.10764779638671" /><trkpt lat="22.407446781250002" lon="114.10765179638672" /><trkpt lat="22.40744978125" lon="114.10765379638671" /><trkpt lat="22.40745378125" lon="114.10765479638673" /><trkpt lat="22.40745778125" lon="114.10765579638672" /><trkpt lat="22.40746378125" lon="114.10765679638672" /><trkpt lat="22.40750478125" lon="114.10765979638671" /><trkpt lat="22.40751278125" lon="114.10766079638672" /><trkpt lat="22.40751878125" lon="114.10766179638672" /><trkpt lat="22.40752278125" lon="114.10766379638672" /><trkpt lat="22.40752678125" lon="114.10766479638671" /><trkpt lat="22.40752978125" lon="114.10766679638672" /><trkpt lat="22.40753378125" lon="114.10766979638672" /><trkpt lat="22.40753778125" lon="114.10767279638672" /><trkpt lat="22.40754678125" lon="114.10768479638672" /><trkpt lat="22.40755078125" lon="114.10768979638672" /><trkpt lat="22.40757378125" lon="114.10770779638672" /><trkpt lat="22.40777178125" lon="114.10786479638672" /><trkpt lat="22.40786978125" lon="114.10822479638672" /><trkpt lat="22.40793978125" lon="114.10828979638671" /><trkpt lat="22.40804078125" lon="114.10829279638672" /><trkpt lat="22.40816278125" lon="114.10843579638671" /><trkpt lat="22.40819578125" lon="114.10864879638672" /><trkpt lat="22.40810378125" lon="114.10896679638672" /><trkpt lat="22.40797478125" lon="114.10910679638671" /><trkpt lat="22.40792578125" lon="114.10942079638671" /><trkpt lat="22.40804478125" lon="114.11003579638673" /><trkpt lat="22.40799478125" lon="114.11033979638673" /><trkpt lat="22.40817278125" lon="114.11072379638672" /><trkpt lat="22.40833278125" lon="114.11103179638671" /><trkpt lat="22.40828578125" lon="114.11121479638672" /><trkpt lat="22.40835578125" lon="114.11171879638673" /><trkpt lat="22.40912378125" lon="114.11210479638672" /><trkpt lat="22.40936678125" lon="114.11256479638672" /><trkpt lat="22.40938078125" lon="114.11276379638672" /><trkpt lat="22.40949778125" lon="114.11293279638672" /><trkpt lat="22.40963678125" lon="114.11352779638672" /><trkpt lat="22.40954978125" lon="114.11398579638671" /><trkpt lat="22.40959878125" lon="114.11450779638672" /><trkpt lat="22.40991578125" lon="114.11498079638672" /><trkpt lat="22.40995178125" lon="114.11518079638672" /><trkpt lat="22.41010378125" lon="114.11543979638672" /><trkpt lat="22.41039978125" lon="114.11585379638672" /><trkpt lat="22.41047578125" lon="114.11616679638672" /><trkpt lat="22.41036478125" lon="114.11669679638672" /><trkpt lat="22.41036478125" lon="114.11686479638672" /><trkpt lat="22.41043478125" lon="114.11701979638671" /><trkpt lat="22.41057478125" lon="114.11710979638671" /><trkpt lat="22.41071478125" lon="114.11718679638672" /><trkpt lat="22.41082778125" lon="114.11722579638672" /><trkpt lat="22.41089678125" lon="114.11721279638672" /><trkpt lat="22.41093378125" lon="114.11718279638671" /><trkpt lat="22.41099278125" lon="114.11719179638672" /><trkpt lat="22.41119978125" lon="114.11734879638672" /><trkpt lat="22.41125178125" lon="114.11739979638672" /><trkpt lat="22.41132078125" lon="114.11750279638672" /><trkpt lat="22.41154978125" lon="114.11753679638672" /><trkpt lat="22.41168078125" lon="114.11757279638672" /><trkpt lat="22.41173178125" lon="114.11760779638672" /><trkpt lat="22.41171678125" lon="114.11769579638671" /><trkpt lat="22.41164578125" lon="114.11775979638672" /><trkpt lat="22.41160578125" lon="114.11785779638672" /><trkpt lat="22.41162778125" lon="114.11800579638673" /><trkpt lat="22.41152778125" lon="114.11820479638672" /><trkpt lat="22.41149078125" lon="114.11829579638672" /><trkpt lat="22.41149978125" lon="114.11837279638672" /><trkpt lat="22.41151978125" lon="114.11841979638672" /><trkpt lat="22.41155678125" lon="114.11848579638672" /><trkpt lat="22.41157278125" lon="114.11850979638672" /><trkpt lat="22.41158778125" lon="114.11853379638671" /><trkpt lat="22.41160478125" lon="114.11856479638672" /><trkpt lat="22.41161978125" lon="114.11859479638672" /><trkpt lat="22.41163178125" lon="114.11862279638672" /><trkpt lat="22.41163778125" lon="114.11864179638673" /><trkpt lat="22.41164078125" lon="114.11865779638671" /><trkpt lat="22.41164278125" lon="114.11867679638672" /><trkpt lat="22.41164278125" lon="114.11869279638672" /><trkpt lat="22.41164078125" lon="114.11870879638671" /><trkpt lat="22.41163578125" lon="114.11872679638672" /><trkpt lat="22.41162978125" lon="114.11874079638672" /><trkpt lat="22.41162278125" lon="114.11875679638672" /><trkpt lat="22.41161378125" lon="114.11877179638672" /><trkpt lat="22.41160478125" lon="114.11878379638672" /><trkpt lat="22.41159378125" lon="114.11879479638672" /><trkpt lat="22.41158178125" lon="114.11880679638672" /><trkpt lat="22.41156878125" lon="114.11881679638672" /><trkpt lat="22.41155278125" lon="114.11882779638673" /><trkpt lat="22.41153678125" lon="114.11883579638672" /><trkpt lat="22.41147378125" lon="114.11886479638672" /><trkpt lat="22.41143178125" lon="114.11888579638672" /><trkpt lat="22.41139778125" lon="114.11890479638672" /><trkpt lat="22.41105178125" lon="114.11911179638672" /><trkpt lat="22.41101078125" lon="114.11913479638672" /><trkpt lat="22.41098278125" lon="114.11914779638671" /><trkpt lat="22.41095278125" lon="114.11916079638672" /><trkpt lat="22.41092478125" lon="114.11917079638671" /><trkpt lat="22.41089778125" lon="114.11917979638672" /><trkpt lat="22.41087778125" lon="114.11918579638672" /><trkpt lat="22.41085778125" lon="114.11918979638672" /><trkpt lat="22.41083178125" lon="114.11919479638672" /><trkpt lat="22.41079678125" lon="114.11919879638671" /><trkpt lat="22.41077278125" lon="114.11920279638672" /><trkpt lat="22.41074578125" lon="114.11920879638672" /><trkpt lat="22.41071678125" lon="114.11921679638672" /><trkpt lat="22.41068878125" lon="114.11922679638671" /><trkpt lat="22.41066178125" lon="114.11923679638672" /><trkpt lat="22.41063278125" lon="114.11925079638672" /><trkpt lat="22.41060978125" lon="114.11926279638672" /><trkpt lat="22.41059178125" lon="114.11927379638672" /><trkpt lat="22.41057578125" lon="114.11928579638672" /><trkpt lat="22.41055978125" lon="114.11929879638672" /><trkpt lat="22.41054278125" lon="114.11931379638672" /><trkpt lat="22.41052678125" lon="114.11933079638672" /><trkpt lat="22.41051178125" lon="114.11934779638672" /><trkpt lat="22.41049778125" lon="114.11936679638671" /><trkpt lat="22.41048578125" lon="114.11938679638672" /><trkpt lat="22.41047378125" lon="114.11940879638672" /><trkpt lat="22.41046178125" lon="114.11943279638672" /><trkpt lat="22.41040078125" lon="114.11957279638672" /><trkpt lat="22.41039278125" lon="114.11959179638671" /><trkpt lat="22.41038278125" lon="114.11961079638672" /><trkpt lat="22.41036878125" lon="114.11962979638672" /><trkpt lat="22.41035378125" lon="114.11964579638672" /><trkpt lat="22.41033578125" lon="114.11966279638672" /><trkpt lat="22.41028878125" lon="114.11970479638671" /><trkpt lat="22.41026778125" lon="114.11972479638672" /><trkpt lat="22.41024678125" lon="114.11974479638671" /><trkpt lat="22.41017478125" lon="114.11982079638672" /><trkpt lat="22.41015978125" lon="114.11983579638672" /><trkpt lat="22.41014578125" lon="114.11984779638672" /><trkpt lat="22.41013078125" lon="114.11985979638672" /><trkpt lat="22.41011578125" lon="114.11987079638672" /><trkpt lat="22.41009878125" lon="114.11988079638672" /><trkpt lat="22.41008278125" lon="114.11988879638672" /><trkpt lat="22.41006678125" lon="114.11989579638671" /><trkpt lat="22.41004978125" lon="114.11990079638672" /><trkpt lat="22.41003478125" lon="114.11990379638672" /><trkpt lat="22.41001578125" lon="114.11990579638672" /><trkpt lat="22.40999478125" lon="114.11990479638672" /><trkpt lat="22.40997278125" lon="114.11990179638671" /><trkpt lat="22.40993278125" lon="114.11989279638672" /><trkpt lat="22.40991478125" lon="114.11989079638671" /><trkpt lat="22.40989678125" lon="114.11988979638672" /><trkpt lat="22.40988278125" lon="114.11989079638671" /><trkpt lat="22.40986978125" lon="114.11989279638672" /><trkpt lat="22.40985778125" lon="114.11989679638671" /><trkpt lat="22.40984678125" lon="114.11990179638671" /><trkpt lat="22.40983678125" lon="114.11990879638672" /><trkpt lat="22.40982478125" lon="114.11991879638671" /><trkpt lat="22.40981378125" lon="114.11993179638672" /><trkpt lat="22.40963178125" lon="114.12013979638672" /><trkpt lat="22.40961178125" lon="114.12016079638671" /><trkpt lat="22.40959478125" lon="114.12017679638672" /><trkpt lat="22.40957978125" lon="114.12018979638673" /><trkpt lat="22.40956478125" lon="114.12019879638672" /><trkpt lat="22.40954278125" lon="114.12020879638672" /><trkpt lat="22.40952178125" lon="114.12021679638671" /><trkpt lat="22.40949878125" lon="114.12022279638671" /><trkpt lat="22.40947578125" lon="114.12022579638672" /><trkpt lat="22.40944778125" lon="114.12022579638672" /><trkpt lat="22.40941978125" lon="114.12022279638671" /><trkpt lat="22.40939178125" lon="114.12021679638671" /><trkpt lat="22.40936478125" lon="114.12020979638672" /><trkpt lat="22.40932478125" lon="114.12019879638672" /><trkpt lat="22.40930778125" lon="114.12019479638671" /><trkpt lat="22.40929078125" lon="114.12019179638672" /><trkpt lat="22.40927678125" lon="114.12019079638672" /><trkpt lat="22.40926178125" lon="114.12019179638672" /><trkpt lat="22.40924778125" lon="114.12019479638671" /><trkpt lat="22.40923178125" lon="114.12019979638671" /><trkpt lat="22.40921378125" lon="114.12020879638672" /><trkpt lat="22.40886578125" lon="114.12040879638671" /><trkpt lat="22.40885278125" lon="114.12041779638672" /><trkpt lat="22.40884078125" lon="114.12042579638671" /><trkpt lat="22.40883178125" lon="114.12043479638672" /><trkpt lat="22.40882278125" lon="114.12044279638671" /><trkpt lat="22.40881478125" lon="114.12045179638672" /><trkpt lat="22.40880778125" lon="114.12045979638673" /><trkpt lat="22.40880278125" lon="114.12046879638672" /><trkpt lat="22.40879778125" lon="114.12047779638672" /><trkpt lat="22.40879178125" lon="114.12049379638673" /><trkpt lat="22.40878178125" lon="114.12051879638672" /><trkpt lat="22.40877778125" lon="114.12053279638671" /><trkpt lat="22.40877378125" lon="114.12054179638672" /><trkpt lat="22.40870678125" lon="114.12077779638672" /><trkpt lat="22.40870178125" lon="114.12079879638672" /><trkpt lat="22.40869878125" lon="114.12081679638672" /><trkpt lat="22.40869678125" lon="114.12083779638672" /><trkpt lat="22.40869578125" lon="114.12085779638672" /><trkpt lat="22.40869578125" lon="114.12087879638672" /><trkpt lat="22.40869678125" lon="114.12090079638672" /><trkpt lat="22.40869978125" lon="114.12092379638672" /><trkpt lat="22.40870278125" lon="114.12094479638672" /><trkpt lat="22.40872778125" lon="114.12109579638673" /><trkpt lat="22.40873078125" lon="114.12111979638672" /><trkpt lat="22.40873178125" lon="114.12113779638672" /><trkpt lat="22.40873378125" lon="114.12115779638673" /><trkpt lat="22.40873378125" lon="114.12117879638672" /><trkpt lat="22.40873278125" lon="114.12120179638671" /><trkpt lat="22.40873178125" lon="114.12122779638672" /><trkpt lat="22.40872878125" lon="114.12125179638672" /><trkpt lat="22.40872678125" lon="114.12126979638671" /><trkpt lat="22.40872178125" lon="114.12129179638671" /><trkpt lat="22.40871478125" lon="114.12131179638672" /><trkpt lat="22.40870678125" lon="114.12133179638671" /><trkpt lat="22.40869878125" lon="114.12134979638672" /><trkpt lat="22.40868978125" lon="114.12136679638672" /><trkpt lat="22.40867878125" lon="114.12138479638672" /><trkpt lat="22.40866578125" lon="114.12140379638672" /><trkpt lat="22.40865378125" lon="114.12142079638672" /><trkpt lat="22.40863678125" lon="114.12144179638672" /><trkpt lat="22.40861778125" lon="114.12146279638672" /><trkpt lat="22.40860278125" lon="114.12147979638672" /><trkpt lat="22.40858778125" lon="114.12149379638672" /><trkpt lat="22.40857378125" lon="114.12150779638672" /><trkpt lat="22.40855578125" lon="114.12152279638671" /><trkpt lat="22.40853778125" lon="114.12153579638672" /><trkpt lat="22.40852278125" lon="114.12154579638671" /><trkpt lat="22.40850978125" lon="114.12155379638672" /><trkpt lat="22.40849178125" lon="114.12156279638671" /><trkpt lat="22.408469781249998" lon="114.12157279638672" /><trkpt lat="22.40845378125" lon="114.12157779638672" /><trkpt lat="22.40841278125" lon="114.12158579638673" /><trkpt lat="22.40838878125" lon="114.12158879638672" /><trkpt lat="22.40836078125" lon="114.12159079638671" /><trkpt lat="22.40834278125" lon="114.12158979638671" /><trkpt lat="22.40832578125" lon="114.12158679638672" /><trkpt lat="22.40831078125" lon="114.12158279638672" /><trkpt lat="22.40829378125" lon="114.12157579638672" /><trkpt lat="22.40827778125" lon="114.12156779638671" /><trkpt lat="22.40826378125" lon="114.12155879638672" /><trkpt lat="22.40823878125" lon="114.12153979638671" /><trkpt lat="22.40822478125" lon="114.12152779638672" /><trkpt lat="22.40821278125" lon="114.12151779638671" /><trkpt lat="22.40819878125" lon="114.12150479638672" /><trkpt lat="22.40814978125" lon="114.12145579638671" /><trkpt lat="22.40813578125" lon="114.12144179638672" /><trkpt lat="22.40812478125" lon="114.12143279638671" /><trkpt lat="22.40811478125" lon="114.12142379638672" /><trkpt lat="22.40810278125" lon="114.12141679638673" /><trkpt lat="22.40809178125" lon="114.12141179638672" /><trkpt lat="22.40807878125" lon="114.12140779638672" /><trkpt lat="22.40806678125" lon="114.12140679638672" /><trkpt lat="22.40805578125" lon="114.12140779638672" /><trkpt lat="22.40804478125" lon="114.12140979638671" /><trkpt lat="22.40803378125" lon="114.12141279638672" /><trkpt lat="22.40802278125" lon="114.12141779638672" /><trkpt lat="22.40801078125" lon="114.12142379638672" /><trkpt lat="22.40799878125" lon="114.12143279638671" /><trkpt lat="22.40798978125" lon="114.12144079638672" /><trkpt lat="22.40798178125" lon="114.12145079638672" /><trkpt lat="22.40797278125" lon="114.12146079638671" /><trkpt lat="22.40792378125" lon="114.12152479638672" /><trkpt lat="22.40791178125" lon="114.12153979638671" /><trkpt lat="22.40789478125" lon="114.12155879638672" /><trkpt lat="22.40788078125" lon="114.12157179638672" /><trkpt lat="22.40787278125" lon="114.12157879638671" /><trkpt lat="22.40786378125" lon="114.12158479638671" /><trkpt lat="22.40785278125" lon="114.12159079638671" /><trkpt lat="22.40784178125" lon="114.12159379638672" /><trkpt lat="22.40782778125" lon="114.12159579638671" /><trkpt lat="22.40781178125" lon="114.12159779638672" /><trkpt lat="22.40779478125" lon="114.12159679638673" /><trkpt lat="22.40777578125" lon="114.12159379638672" /><trkpt lat="22.40775578125" lon="114.12158779638672" /><trkpt lat="22.40773478125" lon="114.12158079638672" /><trkpt lat="22.40762378125" lon="114.12153279638672" /><trkpt lat="22.40751378125" lon="114.12147979638672" /><trkpt lat="22.40745978125" lon="114.12145079638672" /><trkpt lat="22.40736978125" lon="114.12139679638672" /><trkpt lat="22.40734978125" lon="114.12138579638672" /><trkpt lat="22.40732878125" lon="114.12137879638672" /><trkpt lat="22.40730878125" lon="114.12137579638672" /><trkpt lat="22.407287781249998" lon="114.12137679638671" /><trkpt lat="22.40726778125" lon="114.12138079638672" /><trkpt lat="22.40725378125" lon="114.12138779638671" /><trkpt lat="22.40721078125" lon="114.12141179638672" /><trkpt lat="22.40718178125" lon="114.12142679638671" /><trkpt lat="22.40714878125" lon="114.12144179638672" /><trkpt lat="22.40711278125" lon="114.12145579638671" /><trkpt lat="22.40708278125" lon="114.12146579638672" /><trkpt lat="22.40705178125" lon="114.12147379638672" /><trkpt lat="22.40701478125" lon="114.12148179638672" /><trkpt lat="22.40695678125" lon="114.12149179638672" /><trkpt lat="22.40687978125" lon="114.12149579638672" /><trkpt lat="22.40682878125" lon="114.12150479638672" /><trkpt lat="22.40682178125" lon="114.12150779638672" /><trkpt lat="22.40677178125" lon="114.12153079638672" /><trkpt lat="22.40666278125" lon="114.12162279638672" /><trkpt lat="22.40649578125" lon="114.12176079638672" /><trkpt lat="22.40646678125" lon="114.12177579638671" /><trkpt lat="22.40643878125" lon="114.12178979638672" /><trkpt lat="22.40641578125" lon="114.12179279638671" /><trkpt lat="22.40626578125" lon="114.12179979638672" /><trkpt lat="22.40623978125" lon="114.12180579638672" /><trkpt lat="22.40621578125" lon="114.12181379638672" /><trkpt lat="22.40619478125" lon="114.12182479638672" /><trkpt lat="22.40617378125" lon="114.12183679638672" /><trkpt lat="22.40615478125" lon="114.12184979638671" /><trkpt lat="22.40613878125" lon="114.12186279638672" /><trkpt lat="22.40612278125" lon="114.12188079638672" /><trkpt lat="22.40608578125" lon="114.12192979638672" /><trkpt lat="22.40607278125" lon="114.12194979638672" /><trkpt lat="22.40606178125" lon="114.12197279638671" /><trkpt lat="22.40605578125" lon="114.12199179638672" /><trkpt lat="22.40605178125" lon="114.12201279638671" /><trkpt lat="22.40605078125" lon="114.12203279638672" /><trkpt lat="22.40605378125" lon="114.12205379638672" /><trkpt lat="22.40605878125" lon="114.12207179638672" /><trkpt lat="22.40606778125" lon="114.12209379638672" /><trkpt lat="22.40607678125" lon="114.12211279638672" /><trkpt lat="22.40608778125" lon="114.12213179638673" /><trkpt lat="22.40610478125" lon="114.12215379638671" /><trkpt lat="22.40612578125" lon="114.12217779638672" /><trkpt lat="22.40614978125" lon="114.12220179638672" /><trkpt lat="22.40617178125" lon="114.12222179638673" /><trkpt lat="22.40628678125" lon="114.12231779638672" /><trkpt lat="22.40631278125" lon="114.12234179638672" /><trkpt lat="22.40634278125" lon="114.12236979638672" /><trkpt lat="22.40635878125" lon="114.12238279638672" /><trkpt lat="22.40637378125" lon="114.12239279638672" /><trkpt lat="22.40638878125" lon="114.12240179638673" /><trkpt lat="22.40641178125" lon="114.12241279638671" /><trkpt lat="22.40643378125" lon="114.12241879638673" /><trkpt lat="22.40645678125" lon="114.12242179638672" /><trkpt lat="22.40647878125" lon="114.12241979638672" /><trkpt lat="22.40649878125" lon="114.12241479638672" /><trkpt lat="22.40651678125" lon="114.12240479638672" /><trkpt lat="22.40653378125" lon="114.12239179638672" /><trkpt lat="22.40654678125" lon="114.12237579638672" /><trkpt lat="22.40655978125" lon="114.12235279638672" /><trkpt lat="22.40657078125" lon="114.12232779638671" /><trkpt lat="22.40660678125" lon="114.12224179638672" /><trkpt lat="22.40661478125" lon="114.12222379638672" /><trkpt lat="22.40662278125" lon="114.12220879638672" /><trkpt lat="22.40662978125" lon="114.12219779638671" /><trkpt lat="22.40663778125" lon="114.12218879638672" /><trkpt lat="22.40664478125" lon="114.12218179638671" /><trkpt lat="22.40665478125" lon="114.12217679638673" /><trkpt lat="22.40666478125" lon="114.12217279638672" /><trkpt lat="22.40667978125" lon="114.12216879638672" /><trkpt lat="22.40676678125" lon="114.12214879638672" /><trkpt lat="22.40683878125" lon="114.12213179638673" /><trkpt lat="22.40691578125" lon="114.12211379638671" /><trkpt lat="22.40695378125" lon="114.12210679638672" /><trkpt lat="22.40698678125" lon="114.12210279638671" /><trkpt lat="22.40701678125" lon="114.12210079638672" /><trkpt lat="22.40705978125" lon="114.12210079638672" /><trkpt lat="22.40713878125" lon="114.12210279638671" /><trkpt lat="22.40718078125" lon="114.12210079638672" /><trkpt lat="22.40722378125" lon="114.12209679638671" /><trkpt lat="22.40736978125" lon="114.12207079638672" /><trkpt lat="22.40738678125" lon="114.12207079638672" /><trkpt lat="22.40740178125" lon="114.12207379638672" /><trkpt lat="22.40741378125" lon="114.12208179638672" /><trkpt lat="22.40742478125" lon="114.12209479638672" /><trkpt lat="22.40743178125" lon="114.12210879638671" /><trkpt lat="22.40743678125" lon="114.12212479638671" /><trkpt lat="22.40743878125" lon="114.12214379638672" /><trkpt lat="22.40743778125" lon="114.12216179638672" /><trkpt lat="22.40743278125" lon="114.12218179638671" /><trkpt lat="22.40742478125" lon="114.12219679638672" /><trkpt lat="22.40741478125" lon="114.12220979638671" /><trkpt lat="22.40739978125" lon="114.12221979638672" /><trkpt lat="22.40738578125" lon="114.12222479638672" /><trkpt lat="22.40736678125" lon="114.12222579638672" /><trkpt lat="22.40734478125" lon="114.12222479638672" /><trkpt lat="22.40729878125" lon="114.12221879638672" /><trkpt lat="22.40725778125" lon="114.12221679638672" /><trkpt lat="22.40721878125" lon="114.12221679638672" /><trkpt lat="22.40717378125" lon="114.12222179638673" /><trkpt lat="22.40714878125" lon="114.12222679638671" /><trkpt lat="22.40712078125" lon="114.12223579638672" /><trkpt lat="22.40710178125" lon="114.12224479638672" /><trkpt lat="22.40708278125" lon="114.12225579638672" /><trkpt lat="22.40706778125" lon="114.12226879638672" /><trkpt lat="22.40705378125" lon="114.12228379638672" /><trkpt lat="22.40703678125" lon="114.12230679638672" /><trkpt lat="22.40701778125" lon="114.12233879638671" /><trkpt lat="22.40699678125" lon="114.12237779638671" /><trkpt lat="22.40695978125" lon="114.12245079638672" /><trkpt lat="22.40691778125" lon="114.12253479638672" /><trkpt lat="22.40690778125" lon="114.12255679638672" /><trkpt lat="22.40689978125" lon="114.12257979638672" /><trkpt lat="22.40689578125" lon="114.12259679638672" /><trkpt lat="22.40689578125" lon="114.12261579638673" /><trkpt lat="22.40689978125" lon="114.12263179638671" /><trkpt lat="22.40690678125" lon="114.12264779638672" /><trkpt lat="22.40691878125" lon="114.12266779638672" /><trkpt lat="22.40695778125" lon="114.12272079638672" /><trkpt lat="22.40697978125" lon="114.12274779638672" /><trkpt lat="22.40701878125" lon="114.12278979638671" /><trkpt lat="22.40703378125" lon="114.12280679638671" /><trkpt lat="22.40704778125" lon="114.12282679638672" /><trkpt lat="22.40705878125" lon="114.12284179638672" /><trkpt lat="22.40706678125" lon="114.12285979638672" /><trkpt lat="22.40706978125" lon="114.12287679638672" /><trkpt lat="22.40706978125" lon="114.12289479638672" /><trkpt lat="22.40706878125" lon="114.12291479638672" /><trkpt lat="22.40706578125" lon="114.12293579638671" /><trkpt lat="22.40706078125" lon="114.12295679638672" /><trkpt lat="22.40704578125" lon="114.12299879638672" /><trkpt lat="22.40703278125" lon="114.12303179638671" /><trkpt lat="22.40701678125" lon="114.12306479638671" /><trkpt lat="22.40700178125" lon="114.12309179638672" /><trkpt lat="22.40698278125" lon="114.12311779638672" /><trkpt lat="22.40688078125" lon="114.12324779638672" /><trkpt lat="22.40685978125" lon="114.12327479638672" /><trkpt lat="22.40683878125" lon="114.12330579638672" /><trkpt lat="22.40682078125" lon="114.12333979638672" /><trkpt lat="22.40680078125" lon="114.12338479638672" /><trkpt lat="22.40679078125" lon="114.12341079638672" /><trkpt lat="22.40678478125" lon="114.12343679638671" /><trkpt lat="22.40680478125" lon="114.12355579638673" /><trkpt lat="22.40683678125" lon="114.12361779638672" /><trkpt lat="22.40686578125" lon="114.12367479638672" /><trkpt lat="22.40691478125" lon="114.12373779638672" /><trkpt lat="22.40696478125" lon="114.12381279638672" /><trkpt lat="22.40698278125" lon="114.12383979638672" /><trkpt lat="22.40703478125" lon="114.12392279638672" /><trkpt lat="22.40706378125" lon="114.12403479638672" /><trkpt lat="22.40707378125" lon="114.12410579638671" /><trkpt lat="22.40708578125" lon="114.12419379638672" /><trkpt lat="22.40714178125" lon="114.12434479638672" /><trkpt lat="22.40715078125" lon="114.12435679638672" /><trkpt lat="22.40732978125" lon="114.12459479638672" /><trkpt lat="22.40747078125" lon="114.12478079638672" /><trkpt lat="22.40750178125" lon="114.12480379638671" /><trkpt lat="22.40754778125" lon="114.12480479638671" /><trkpt lat="22.40758078125" lon="114.12478079638672" /><trkpt lat="22.40758578125" lon="114.12474079638672" /><trkpt lat="22.40758078125" lon="114.12472179638672" /><trkpt lat="22.40757578125" lon="114.12470479638672" /><trkpt lat="22.40757378125" lon="114.12469779638671" /><trkpt lat="22.40749578125" lon="114.12455679638671" /><trkpt lat="22.40749378125" lon="114.12455179638673" /><trkpt lat="22.40750278125" lon="114.12448779638672" /><trkpt lat="22.40753778125" lon="114.12444079638672" /><trkpt lat="22.40765078125" lon="114.12433179638671" /><trkpt lat="22.40765978125" lon="114.12431579638672" /><trkpt lat="22.40772478125" lon="114.12420279638673" /><trkpt lat="22.40773778125" lon="114.12412779638672" /><trkpt lat="22.40776678125" lon="114.12396079638673" /><trkpt lat="22.40777078125" lon="114.12393879638672" /><trkpt lat="22.40781178125" lon="114.12387279638672" /><trkpt lat="22.40785478125" lon="114.12383379638672" /><trkpt lat="22.40809078125" lon="114.12363679638672" /><trkpt lat="22.40814478125" lon="114.12358479638672" /><trkpt lat="22.40815478125" lon="114.12357479638672" /><trkpt lat="22.40821778125" lon="114.12347379638672" /><trkpt lat="22.40826478125" lon="114.12344479638672" /><trkpt lat="22.40831978125" lon="114.12346079638672" /><trkpt lat="22.40832778125" lon="114.12352479638672" /><trkpt lat="22.40832278125" lon="114.12353879638673" /><trkpt lat="22.40830478125" lon="114.12358879638671" /><trkpt lat="22.40813978125" lon="114.12373779638672" /><trkpt lat="22.40802078125" lon="114.12388279638672" /><trkpt lat="22.40797778125" lon="114.12399579638672" /><trkpt lat="22.40796378125" lon="114.12417579638672" /><trkpt lat="22.40802878125" lon="114.12442679638671" /><trkpt lat="22.40805678125" lon="114.12456579638672" /><trkpt lat="22.40806078125" lon="114.12477579638671" /><trkpt lat="22.40801878125" lon="114.12490179638672" /><trkpt lat="22.40794878125" lon="114.12501779638671" /><trkpt lat="22.40790978125" lon="114.12511379638671" /><trkpt lat="22.40790578125" lon="114.12513279638672" /><trkpt lat="22.40788078125" lon="114.12524179638672" /><trkpt lat="22.40788578125" lon="114.12536579638672" /><trkpt lat="22.40790378125" lon="114.12540279638672" /><trkpt lat="22.40791078125" lon="114.12540379638672" /><trkpt lat="22.40793778125" lon="114.12540679638671" /><trkpt lat="22.40798278125" lon="114.12537379638673" /><trkpt lat="22.40799978125" lon="114.12534179638672" /><trkpt lat="22.40800678125" lon="114.12530379638672" /><trkpt lat="22.40799578125" lon="114.12518179638671" /><trkpt lat="22.40801078125" lon="114.12510979638672" /><trkpt lat="22.40814778125" lon="114.12494679638672" /><trkpt lat="22.40821978125" lon="114.12482079638671" /><trkpt lat="22.40824378125" lon="114.12468879638672" /><trkpt lat="22.40825878125" lon="114.12430279638671" /><trkpt lat="22.40825078125" lon="114.12418779638672" /><trkpt lat="22.40825578125" lon="114.12412179638672" /><trkpt lat="22.40828778125" lon="114.12407179638672" /><trkpt lat="22.40835078125" lon="114.12404079638672" /><trkpt lat="22.40839578125" lon="114.12407379638672" /><trkpt lat="22.40840678125" lon="114.12408179638672" /><trkpt lat="22.40833978125" lon="114.12430679638672" /><trkpt lat="22.40833978125" lon="114.12431979638671" /><trkpt lat="22.40835478125" lon="114.12460879638672" /><trkpt lat="22.40835778125" lon="114.12463179638672" /><trkpt lat="22.40837978125" lon="114.12476279638672" /><trkpt lat="22.40839278125" lon="114.12488579638672" /><trkpt lat="22.40834778125" lon="114.12511279638672" /><trkpt lat="22.40835078125" lon="114.12524179638672" /><trkpt lat="22.40836478125" lon="114.12525379638672" /><trkpt lat="22.40840578125" lon="114.12529079638672" /><trkpt lat="22.40843078125" lon="114.12529779638672" /><trkpt lat="22.40845978125" lon="114.12530679638672" /><trkpt lat="22.40864778125" lon="114.12533379638671" /><trkpt lat="22.40865578125" lon="114.12533579638672" /><trkpt lat="22.408825781250002" lon="114.12531679638671" /><trkpt lat="22.40892778125" lon="114.12535179638672" /><trkpt lat="22.40910678125" lon="114.12544379638672" /><trkpt lat="22.40935478125" lon="114.12557279638672" /><trkpt lat="22.40942578125" lon="114.12557079638673" /><trkpt lat="22.40966878125" lon="114.12549379638672" /><trkpt lat="22.40979978125" lon="114.12552279638672" /><trkpt lat="22.40985178125" lon="114.12560079638672" /><trkpt lat="22.40987478125" lon="114.12567879638672" /><trkpt lat="22.40989878125" lon="114.12575379638672" /><trkpt lat="22.40994678125" lon="114.12575979638672" /><trkpt lat="22.41002378125" lon="114.12577279638671" /><trkpt lat="22.41014778125" lon="114.12577679638672" /><trkpt lat="22.41017278125" lon="114.12577079638672" /><trkpt lat="22.41023178125" lon="114.12575779638672" /><trkpt lat="22.41038278125" lon="114.12570679638672" /><trkpt lat="22.41063278125" lon="114.12567579638672" /><trkpt lat="22.41071178125" lon="114.12568079638672" /><trkpt lat="22.41079178125" lon="114.12571779638672" /><trkpt lat="22.41091078125" lon="114.12571479638672" /><trkpt lat="22.41103278125" lon="114.12564779638672" /><trkpt lat="22.41121978125" lon="114.12548479638671" /><trkpt lat="22.41128678125" lon="114.12542679638672" /><trkpt lat="22.41131878125" lon="114.12539279638672" /><trkpt lat="22.41136478125" lon="114.12532179638671" /><trkpt lat="22.41138878125" lon="114.12518879638672" /><trkpt lat="22.41139978125" lon="114.12500279638672" /><trkpt lat="22.41157578125" lon="114.12497579638672" /><trkpt lat="22.41165378125" lon="114.12496579638672" /><trkpt lat="22.41193478125" lon="114.12494479638671" /><trkpt lat="22.41199778125" lon="114.12489679638672" /><trkpt lat="22.41216678125" lon="114.12476079638672" /><trkpt lat="22.41227278125" lon="114.12468679638671" /><trkpt lat="22.41237878125" lon="114.12463179638672" /><trkpt lat="22.41276478125" lon="114.12447279638671" /><trkpt lat="22.41303778125" lon="114.12433179638671" /><trkpt lat="22.41308878125" lon="114.12429179638671" /><trkpt lat="22.41311978125" lon="114.12422179638672" /><trkpt lat="22.41312078125" lon="114.12416279638671" /><trkpt lat="22.41309878125" lon="114.12408279638672" /><trkpt lat="22.41303878125" lon="114.12399079638672" /><trkpt lat="22.41287978125" lon="114.12378479638672" /><trkpt lat="22.41285478125" lon="114.12370179638671" /><trkpt lat="22.41285878125" lon="114.12364279638672" /><trkpt lat="22.41287478125" lon="114.12361679638671" /><trkpt lat="22.41289678125" lon="114.12359579638672" /><trkpt lat="22.41292478125" lon="114.12358879638671" /><trkpt lat="22.41294978125" lon="114.12359179638672" /><trkpt lat="22.41313278125" lon="114.12374179638672" /><trkpt lat="22.41321478125" lon="114.12377479638671" /><trkpt lat="22.41345278125" lon="114.12380479638672" /><trkpt lat="22.41348278125" lon="114.12381779638672" /><trkpt lat="22.41349778125" lon="114.12383579638671" /><trkpt lat="22.413508781250002" lon="114.12386079638672" /><trkpt lat="22.41358778125" lon="114.12431279638672" /><trkpt lat="22.41360278125" lon="114.12435279638672" /><trkpt lat="22.41361978125" lon="114.12438079638672" /><trkpt lat="22.41364578125" lon="114.12441479638672" /><trkpt lat="22.41366978125" lon="114.12443179638672" /><trkpt lat="22.41369778125" lon="114.12443879638671" /><trkpt lat="22.41372178125" lon="114.12443779638672" /><trkpt lat="22.41374078125" lon="114.12443079638672" /><trkpt lat="22.41374978125" lon="114.12441879638672" /><trkpt lat="22.41391578125" lon="114.12356579638671" /><trkpt lat="22.41393878125" lon="114.12351979638672" /><trkpt lat="22.41398978125" lon="114.12349879638671" /><trkpt lat="22.41403078125" lon="114.12350979638671" /><trkpt lat="22.41406878125" lon="114.12352979638672" /><trkpt lat="22.41408978125" lon="114.12358679638672" /><trkpt lat="22.414099781250002" lon="114.12388979638672" /><trkpt lat="22.41413078125" lon="114.12403979638673" /><trkpt lat="22.41427078125" lon="114.12434079638672" /><trkpt lat="22.41432978125" lon="114.12440979638671" /><trkpt lat="22.41486878125" lon="114.12470679638672" /><trkpt lat="22.41488178125" lon="114.12487579638672" /><trkpt lat="22.41490378125" lon="114.12493879638672" /><trkpt lat="22.41493678125" lon="114.12498379638672" /><trkpt lat="22.41499178125" lon="114.12502779638672" /><trkpt lat="22.41541178125" lon="114.12506979638673" /><trkpt lat="22.41549178125" lon="114.12511479638673" /><trkpt lat="22.41575978125" lon="114.12536779638671" /><trkpt lat="22.41583378125" lon="114.12545079638672" /><trkpt lat="22.41593878125" lon="114.12556879638672" /><trkpt lat="22.41600678125" lon="114.12564779638672" /><trkpt lat="22.41613278125" lon="114.12572379638672" /><trkpt lat="22.41618278125" lon="114.12576879638672" /><trkpt lat="22.41620878125" lon="114.12580879638672" /><trkpt lat="22.41621978125" lon="114.12587879638671" /><trkpt lat="22.41618978125" lon="114.12597679638672" /><trkpt lat="22.41619078125" lon="114.12604179638672" /><trkpt lat="22.41623078125" lon="114.12619279638672" /><trkpt lat="22.41620978125" lon="114.12635879638673" /><trkpt lat="22.41638878125" lon="114.12670079638671" /><trkpt lat="22.41644178125" lon="114.12706379638672" /><trkpt lat="22.41647078125" lon="114.12738379638672" /><trkpt lat="22.41642578125" lon="114.12779079638672" /><trkpt lat="22.41643878125" lon="114.12787679638672" /><trkpt lat="22.41658378125" lon="114.12789179638672" /><trkpt lat="22.41670178125" lon="114.12786079638671" /><trkpt lat="22.41678478125" lon="114.12785779638672" /><trkpt lat="22.41688578125" lon="114.12815079638672" /><trkpt lat="22.41691278125" lon="114.12846379638673" /><trkpt lat="22.41688478125" lon="114.12860879638671" /><trkpt lat="22.41672078125" lon="114.12945479638672" /><trkpt lat="22.41668678125" lon="114.12969479638672" /><trkpt lat="22.41675678125" lon="114.12992779638672" /><trkpt lat="22.41675378125" lon="114.13000079638672" /><trkpt lat="22.41672578125" lon="114.13011079638672" /><trkpt lat="22.41650878125" lon="114.13052879638671" /><trkpt lat="22.41646678125" lon="114.13076779638672" /><trkpt lat="22.41649878125" lon="114.13096579638672" /><trkpt lat="22.41654478125" lon="114.13110279638671" /><trkpt lat="22.41674578125" lon="114.13127279638672" /><trkpt lat="22.41678878125" lon="114.13137179638672" /><trkpt lat="22.41681178125" lon="114.13156979638671" /><trkpt lat="22.41679878125" lon="114.13171179638672" /><trkpt lat="22.41670078125" lon="114.13199879638672" /><trkpt lat="22.41670678125" lon="114.13210479638671" /><trkpt lat="22.416736781250002" lon="114.13220479638672" /><trkpt lat="22.41676078125" lon="114.13227279638672" /><trkpt lat="22.41689778125" lon="114.13225279638672" /><trkpt lat="22.41704478125" lon="114.13195079638672" /><trkpt lat="22.41704778125" lon="114.13189179638672" /><trkpt lat="22.41711478125" lon="114.13168279638671" /><trkpt lat="22.41717878125" lon="114.13160779638672" /><trkpt lat="22.41725378125" lon="114.13157179638672" /><trkpt lat="22.41733778125" lon="114.13156379638671" /><trkpt lat="22.41742278125" lon="114.13150279638671" /><trkpt lat="22.41758178125" lon="114.13143679638672" /><trkpt lat="22.41761378125" lon="114.13134679638672" /><trkpt lat="22.41758578125" lon="114.13126179638672" /><trkpt lat="22.41759278125" lon="114.13116279638672" /><trkpt lat="22.41760478125" lon="114.13108179638672" /><trkpt lat="22.41759778125" lon="114.13099279638672" /><trkpt lat="22.41774678125" lon="114.13074879638671" /><trkpt lat="22.41783078125" lon="114.13060679638672" /><trkpt lat="22.41786478125" lon="114.13052179638672" /><trkpt lat="22.41792878125" lon="114.13046879638672" /><trkpt lat="22.41799078125" lon="114.13046579638672" /><trkpt lat="22.41817778125" lon="114.13039679638672" /><trkpt lat="22.41833978125" lon="114.13038179638671" /><trkpt lat="22.41853978125" lon="114.13031079638672" /><trkpt lat="22.41869778125" lon="114.13022679638672" /><trkpt lat="22.41893478125" lon="114.13023379638672" /><trkpt lat="22.41905978125" lon="114.13025579638672" /><trkpt lat="22.41917278125" lon="114.13028579638672" /><trkpt lat="22.41929178125" lon="114.13031779638672" /><trkpt lat="22.41936978125" lon="114.13028979638672" /><trkpt lat="22.41955578125" lon="114.13009479638671" /><trkpt lat="22.41957978125" lon="114.13000179638672" /><trkpt lat="22.41965778125" lon="114.12996379638672" /><trkpt lat="22.41985378125" lon="114.12990479638673" /><trkpt lat="22.41992178125" lon="114.12983179638672" /><trkpt lat="22.41989478125" lon="114.12974579638671" /><trkpt lat="22.41988878125" lon="114.12965979638672" /><trkpt lat="22.41981778125" lon="114.12960479638672" /><trkpt lat="22.41985078125" lon="114.12952079638671" /><trkpt lat="22.41990578125" lon="114.12944579638672" /><trkpt lat="22.41991578125" lon="114.12936679638672" /><trkpt lat="22.41997478125" lon="114.12930279638672" /><trkpt lat="22.42000378125" lon="114.12923379638671" /><trkpt lat="22.42013578125" lon="114.12904879638671" /><trkpt lat="22.42020078125" lon="114.12901179638672" /><trkpt lat="22.42040178125" lon="114.12901479638671" /><trkpt lat="22.42054478125" lon="114.12900279638671" /><trkpt lat="22.42063078125" lon="114.12902979638672" /><trkpt lat="22.42080178125" lon="114.12896779638672" /><trkpt lat="22.42099078125" lon="114.12890679638672" /><trkpt lat="22.42114578125" lon="114.12893179638672" /><trkpt lat="22.42125078125" lon="114.12890079638672" /><trkpt lat="22.42181178125" lon="114.12892079638672" /><trkpt lat="22.42196978125" lon="114.12883979638671" /><trkpt lat="22.42206278125" lon="114.12882879638671" /><trkpt lat="22.42220178125" lon="114.12891179638672" /><trkpt lat="22.42260278125" lon="114.12911679638673" /><trkpt lat="22.42271378125" lon="114.12910979638671" /><trkpt lat="22.42276778125" lon="114.12907979638672" /><trkpt lat="22.42285278125" lon="114.12900979638673" /><trkpt lat="22.42288678125" lon="114.12892679638672" /><trkpt lat="22.42285478125" lon="114.12880179638672" /><trkpt lat="22.42283878125" lon="114.12864679638672" /><trkpt lat="22.42290878125" lon="114.12857479638672" /><trkpt lat="22.42301178125" lon="114.12834679638672" /><trkpt lat="22.42323078125" lon="114.12820279638672" /><trkpt lat="22.42341678125" lon="114.12808079638671" /><trkpt lat="22.42355078125" lon="114.12799279638672" /><trkpt lat="22.42364078125" lon="114.12799179638672" /><trkpt lat="22.42380478125" lon="114.12815979638673" /><trkpt lat="22.42414678125" lon="114.12834179638672" /><trkpt lat="22.42484778125" lon="114.12848479638672" /><trkpt lat="22.42534878125" lon="114.12881179638671" /><trkpt lat="22.42539578125" lon="114.12863479638672" /><trkpt lat="22.42560878125" lon="114.12851079638672" /><trkpt lat="22.42586578125" lon="114.12844279638672" /><trkpt lat="22.426534781249998" lon="114.12870379638672" /><trkpt lat="22.42712478125" lon="114.12865979638671" /><trkpt lat="22.42726278125" lon="114.12864979638672" /><trkpt lat="22.42743378125" lon="114.12879779638672" /><trkpt lat="22.42742378125" lon="114.12906079638672" /><trkpt lat="22.42761778125" lon="114.12921579638672" /><trkpt lat="22.42823678125" lon="114.12928079638672" /><trkpt lat="22.42834378125" lon="114.12935479638672" /><trkpt lat="22.42866678125" lon="114.12939479638672" /><trkpt lat="22.42921878125" lon="114.12926579638672" /><trkpt lat="22.42954078125" lon="114.12962179638672" /><trkpt lat="22.42981478125" lon="114.12964779638672" /><trkpt lat="22.43013878125" lon="114.12986679638672" /><trkpt lat="22.43069178125" lon="114.13002279638673" /><trkpt lat="22.43084578125" lon="114.13019179638673" /><trkpt lat="22.43105678125" lon="114.13026479638671" /><trkpt lat="22.43117678125" lon="114.13028379638672" /><trkpt lat="22.43153478125" lon="114.13056779638671" /><trkpt lat="22.43164278125" lon="114.13047879638673" /><trkpt lat="22.43174178125" lon="114.13049679638672" /><trkpt lat="22.43182278125" lon="114.13029579638672" /><trkpt lat="22.43200878125" lon="114.13026979638671" /><trkpt lat="22.43226578125" lon="114.13047079638672" /><trkpt lat="22.43229378125" lon="114.13031179638672" /><trkpt lat="22.43224978125" lon="114.13014479638672" /><trkpt lat="22.43205678125" lon="114.12990479638673" /><trkpt lat="22.43195478125" lon="114.12974879638672" /><trkpt lat="22.43199878125" lon="114.12967279638671" /><trkpt lat="22.43208978125" lon="114.12971879638671" /><trkpt lat="22.43224978125" lon="114.12973079638672" /><trkpt lat="22.43239678125" lon="114.12972679638672" /><trkpt lat="22.43251778125" lon="114.12975679638672" /><trkpt lat="22.43261178125" lon="114.12985179638672" /><trkpt lat="22.43269678125" lon="114.12987779638672" /><trkpt lat="22.43278178125" lon="114.12988279638672" /><trkpt lat="22.43286178125" lon="114.12984579638672" /><trkpt lat="22.43291778125" lon="114.12978279638672" /><trkpt lat="22.43308078125" lon="114.12983179638672" /><trkpt lat="22.43324978125" lon="114.12978679638672" /><trkpt lat="22.43332578125" lon="114.12974479638672" /><trkpt lat="22.43340178125" lon="114.12976979638673" /><trkpt lat="22.43347378125" lon="114.12982079638672" /><trkpt lat="22.43363878125" lon="114.12986579638672" /><trkpt lat="22.43372478125" lon="114.12984679638672" /><trkpt lat="22.43380578125" lon="114.12977879638672" /><trkpt lat="22.43388078125" lon="114.12980479638672" /><trkpt lat="22.43395978125" lon="114.12990679638672" /><trkpt lat="22.43411178125" lon="114.12989979638672" /><trkpt lat="22.43422378125" lon="114.12992679638671" /><trkpt lat="22.43429678125" lon="114.12988579638672" /><trkpt lat="22.43473878125" lon="114.13016079638672" /><trkpt lat="22.43498578125" lon="114.13010979638672" /><trkpt lat="22.43507278125" lon="114.13014379638672" /><trkpt lat="22.43513578125" lon="114.13009379638672" /><trkpt lat="22.43510978125" lon="114.13002479638672" /><trkpt lat="22.43516178125" lon="114.12985379638671" /><trkpt lat="22.43515678125" lon="114.12975079638672" /><trkpt lat="22.43522878125" lon="114.12945779638672" /><trkpt lat="22.43535378125" lon="114.12921379638672" /><trkpt lat="22.43548878125" lon="114.12904379638672" /><trkpt lat="22.43566178125" lon="114.12893779638672" /><trkpt lat="22.43578278125" lon="114.12890879638672" /><trkpt lat="22.43580478125" lon="114.12886979638672" /><trkpt lat="22.43581278125" lon="114.12879979638672" /><trkpt lat="22.43578178125" lon="114.12865479638671" /><trkpt lat="22.43576678125" lon="114.12849279638672" /><trkpt lat="22.43578078125" lon="114.12837579638672" /><trkpt lat="22.43590178125" lon="114.12825879638672" /><trkpt lat="22.43600878125" lon="114.12824979638673" /><trkpt lat="22.43606778125" lon="114.12822379638672" /><trkpt lat="22.43610478125" lon="114.12820179638672" /><trkpt lat="22.43617978125" lon="114.12815079638672" /><trkpt lat="22.43644378125" lon="114.12812079638672" /><trkpt lat="22.43657278125" lon="114.12819479638672" /><trkpt lat="22.43671378125" lon="114.12839179638672" /><trkpt lat="22.43676978125" lon="114.12841779638671" /><trkpt lat="22.43679778125" lon="114.12855379638673" /><trkpt lat="22.43667678125" lon="114.12875179638672" /><trkpt lat="22.43667678125" lon="114.12883479638671" /><trkpt lat="22.43680678125" lon="114.12878179638672" /><trkpt lat="22.43691578125" lon="114.12871679638671" /><trkpt lat="22.43704578125" lon="114.12868579638672" /><trkpt lat="22.43707678125" lon="114.12861479638671" /><trkpt lat="22.43705378125" lon="114.12839679638672" /><trkpt lat="22.43705578125" lon="114.12833579638672" /><trkpt lat="22.43707678125" lon="114.12826379638672" /><trkpt lat="22.43710578125" lon="114.12816479638671" /><trkpt lat="22.43713578125" lon="114.12810979638672" /><trkpt lat="22.43723278125" lon="114.12794879638672" /><trkpt lat="22.43730478125" lon="114.12786579638671" /><trkpt lat="22.43734478125" lon="114.12783879638671" /><trkpt lat="22.43737078125" lon="114.12782679638671" /><trkpt lat="22.43739878125" lon="114.12781779638672" /><trkpt lat="22.43751578125" lon="114.12780779638672" /><trkpt lat="22.43754478125" lon="114.12780279638672" /><trkpt lat="22.43756478125" lon="114.12779279638671" /><trkpt lat="22.43757978125" lon="114.12778279638673" /><trkpt lat="22.43759678125" lon="114.12776579638673" /><trkpt lat="22.43767578125" lon="114.12767879638672" /><trkpt lat="22.43773478125" lon="114.12761779638672" /><trkpt lat="22.43777378125" lon="114.12759479638672" /><trkpt lat="22.43781178125" lon="114.12758279638672" /><trkpt lat="22.43784478125" lon="114.12757379638671" /><trkpt lat="22.43791078125" lon="114.12756379638672" /><trkpt lat="22.43797878125" lon="114.12751979638672" /><trkpt lat="22.43801078125" lon="114.12749679638672" /><trkpt lat="22.43802878125" lon="114.12748979638671" /><trkpt lat="22.43803878125" lon="114.12748779638672" /><trkpt lat="22.43808478125" lon="114.12745279638672" /><trkpt lat="22.43819678125" lon="114.12745179638672" /><trkpt lat="22.43823678125" lon="114.12746379638672" /><trkpt lat="22.43834578125" lon="114.12749979638672" /><trkpt lat="22.43839578125" lon="114.12751379638672" /><trkpt lat="22.43845778125" lon="114.12749679638672" /><trkpt lat="22.43846578125" lon="114.12748579638672" /><trkpt lat="22.43848278125" lon="114.12746279638672" /><trkpt lat="22.438537781249998" lon="114.12742879638672" /><trkpt lat="22.43856978125" lon="114.12742679638671" /><trkpt lat="22.43862478125" lon="114.12743879638671" /><trkpt lat="22.43867878125" lon="114.12744179638672" /><trkpt lat="22.43873078125" lon="114.12743279638671" /><trkpt lat="22.43880278125" lon="114.12745379638672" /><trkpt lat="22.43883178125" lon="114.12746579638672" /><trkpt lat="22.43884278125" lon="114.12747179638671" /><trkpt lat="22.43894178125" lon="114.12752679638672" /><trkpt lat="22.43899378125" lon="114.12756779638671" /><trkpt lat="22.43903478125" lon="114.12761279638671" /><trkpt lat="22.43908178125" lon="114.12768679638671" /><trkpt lat="22.43912378125" lon="114.12774079638672" /><trkpt lat="22.43916978125" lon="114.12778079638672" /><trkpt lat="22.43919478125" lon="114.12777679638671" /><trkpt lat="22.43921578125" lon="114.12775879638671" /><trkpt lat="22.43922478125" lon="114.12773179638671" /><trkpt lat="22.43924478125" lon="114.12764479638672" /><trkpt lat="22.43925278125" lon="114.12760979638672" /><trkpt lat="22.43927878125" lon="114.12756779638671" /><trkpt lat="22.43930678125" lon="114.12756579638672" /><trkpt lat="22.43932778125" lon="114.12756679638672" /><trkpt lat="22.43934878125" lon="114.12757779638672" /><trkpt lat="22.43940178125" lon="114.12758879638672" /><trkpt lat="22.43943778125" lon="114.12758279638672" /><trkpt lat="22.43949178125" lon="114.12755279638672" /><trkpt lat="22.43957178125" lon="114.12750379638672" /><trkpt lat="22.43962978125" lon="114.12745479638671" /><trkpt lat="22.43968678125" lon="114.12740379638672" /><trkpt lat="22.43973178125" lon="114.12736179638672" /><trkpt lat="22.43976478125" lon="114.12734079638672" /><trkpt lat="22.43983978125" lon="114.12733779638671" /><trkpt lat="22.43988478125" lon="114.12732679638673" /><trkpt lat="22.43996978125" lon="114.12728379638672" /><trkpt lat="22.44002078125" lon="114.12722679638672" /><trkpt lat="22.44006978125" lon="114.12717779638672" /><trkpt lat="22.44011778125" lon="114.12711079638672" /><trkpt lat="22.44018478125" lon="114.12704779638672" /><trkpt lat="22.44028078125" lon="114.12698279638671" /><trkpt lat="22.44039078125" lon="114.12691179638672" /><trkpt lat="22.44047978125" lon="114.12689479638672" /><trkpt lat="22.44061978125" lon="114.12687679638672" /><trkpt lat="22.44066678125" lon="114.12685679638672" /><trkpt lat="22.440676859931674" lon="114.12686764632063" /></trkseg></trk></gpx>